#cP2017  9 29  0  0  0.00000000      96 ORBIT IGS14 HLM  IGS
## 1968 432000.00000000   900.00000000 58025 0.0000000000000
+   32   G01G02G03G04G05G06G07G08G09G10G11G12G13G14G15G16G17
+        G18G19G20G21G22G23G24G25G26G27G28G29G30G31G32  0  0
+          0  0  0  0  0  0  0  0  0  0  0  0  0  0  0  0  0
+          0  0  0  0  0  0  0  0  0  0  0  0  0  0  0  0  0
+          0  0  0  0  0  0  0  0  0  0  0  0  0  0  0  0  0
++         2  2  2  0  2  2  2  2  2  2  2  2  2  2  2  2  2
++         2  2  2  2  2  3  2  2  2  2  2  2  2  2  2  0  0
++         0  0  0  0  0  0  0  0  0  0  0  0  0  0  0  0  0
++         0  0  0  0  0  0  0  0  0  0  0  0  0  0  0  0  0
++         0  0  0  0  0  0  0  0  0  0  0  0  0  0  0  0  0
%c G  cc GPS ccc cccc cccc cccc cccc ccccc ccccc ccccc ccccc
%c cc cc ccc ccc cccc cccc cccc cccc ccccc ccccc ccccc ccccc
%f  1.2500000  1.025000000  0.00000000000  0.000000000000000
%f  0.0000000  0.000000000  0.00000000000  0.000000000000000
%i    0    0    0    0      0      0      0      0         0
%i    0    0    0    0      0      0      0      0         0
/* FINAL ORBIT COMBINATION FROM WEIGHTED AVERAGE OF:        
/* cod emr esa gfz grg jpl mit ngs sio                      
/* REFERENCED TO GPS CLOCK AND TO WEIGHTED MEAN POLE:       
/* PCV:IGS14_1967 OL/AL:FES2004  NONE     Y  ORB:CMB CLK:CMB
*  2017  9 29 19 30  0.00000000
PG01  -2890.945306  16782.191950 -20443.484065     -2.758080  7  8  4  96       
PG02  20905.617089 -15367.983029   5353.037916    318.436977     4  4  91       
PG03   8211.250440  19528.767250 -16061.607889    -62.081322  7  7  3  89       
PG04 -13240.727497  12610.244019  18894.920538 999999.999999                    
PG05  11835.832577 -10461.353189  21275.933894    -27.710315  2  5  3  83       
PG06  24754.790970  -5647.283075  -7800.284675    401.124769  3  6  5 102       
PG07  13240.159911  10175.580357  20946.715842    299.734609  7  9  6  92       
PG08  -6133.852401  25081.274585   6040.860355    -75.238756  6  7  5 111       
PG09   8686.932718  20499.979252  14449.516105    450.479883  6  5  6  92       
PG10 -23494.967196  -9147.699847  -8534.131284     77.012798  3  3  6  87       
PG11  -4767.922849  22272.723837 -14322.239094   -718.495109  7  9  1 104       
PG12  -3578.688918 -18674.579975 -18792.259415    371.017972  6 10  3  92       
PG13  12091.501771 -20881.756813  11018.043267    -92.106589  6  7  5 108       
PG14 -15464.446008   5373.790602 -20600.166451    -84.971835  7  5  7  86       
PG15   2663.204614 -26010.472516   3100.712363   -356.240624  7  9  3 108       
PG16 -12617.775183   8169.664005  21810.464274     37.000563  4  6  5  89       
PG17  13910.411208   5227.217774 -21661.118202   -153.898123  6  6  4  84       
PG18 -21372.003735 -15808.360381   2588.270110    630.519308  7  9  5  96       
PG19  15501.971765  -4406.581158 -21436.519755   -483.763283  6  4  3  96       
PG20  -4342.704985 -18381.786850  18532.579491    488.173019  5  8  3  94       
PG21 -16619.461895  -7830.194696  19996.254021   -475.313466  7  7  6  65       
PG22     24.263536  17571.202283 -19669.447270   -138.347112  8  8  5  61       
PG23   2429.896622  25555.736180   6121.225025   -217.747585  8 10  6  97       
PG24   5419.199995 -17993.829421 -18758.158852    -40.286864  8  6  5 112       
PG25 -15291.997060 -19354.667298 -10287.633584   -464.446701  7  6  4 121       
PG26 -20062.589176   1133.492289  17418.593558   -411.883638  4  3  5  82       
PG27 -12215.725758  17300.884345  15828.443311    331.220038  6  5  3  93       
PG28  21867.518341  13953.668373  -5042.856111    649.892999  8  9  4  74       
PG29  -4526.258133 -23336.180754  11848.223141    557.107617  7 10  3  67       
PG30  21878.836545   2879.978877  14893.523204    137.700743  5  4  4  89       
PG31 -25336.230832   7008.685826  -5026.755608    172.072961  6  6  3  90       
PG32 -15207.647270  -1355.373006 -21709.787657   -506.865217  7  2  5  79       
*  2017  9 29 19 45  0.00000000
PG01  -4952.648993  17686.521385 -19217.559760     -2.759303  7  8  3 100       
PG02  21406.154225 -15298.137526   2554.363667    318.428607  2  3  4  95       
PG03   6506.238734  18597.933428 -17846.009004    -62.077257  7  7  3  91       
PG04 -13467.684046  10335.183077  20114.977324 999999.999999                    
PG05  13855.825522  -9123.340558  20684.976654    -27.709122  2  5  3  82       
PG06  23921.575331  -4985.169736 -10408.490327    401.127321  4  6  4  85       
PG07  11105.723769  11241.743751  21598.484853    299.729953  7  9  7  90       
PG08  -6323.818875  24230.065239   8746.542352    -75.239768  6  7  5 122       
PG09   8399.093688  22019.875459  12213.827815    450.485174  6  6  6  93       
PG10 -24057.509298  -9791.902198  -5846.605146     77.021154  3  3  6  80       
PG11  -5931.652925  23186.009643 -12204.901276   -718.496866  7  9  2  93       
PG12  -1782.687606 -17425.939862 -20190.762898    371.016817  7 10  2  97       
PG13  12038.118637 -19458.945759  13397.349617    -92.107090  5  7  4 112       
PG14 -15207.662341   2928.698691 -21278.655738    -84.972641  7  5  7  92       
PG15   3042.896362 -25477.156734   5850.139978   -356.240818  7  8  3 114       
PG16 -14556.555473   6634.954888  21152.062959     37.000569  4  6  6  79       
PG17  13612.898310   7728.773700 -21117.767996   -153.896424  7  7  4  89       
PG18 -20870.899253 -15894.546861   5315.206554    630.520061  8  9  4  93       
PG19  15164.900412  -2011.929984 -22015.895916   -483.761451  6  4  3  97       
PG20  -2297.128400 -17487.069739  19715.295423    488.173890  5  8  3  90       
PG21 -14749.034251  -8981.511953  20987.675795   -475.310472  8  8  6  71       
PG22  -2066.854213  16472.758474 -20487.864558   -138.358440  7  7  5  38       
PG23   2081.089667  26061.314746   3343.850889   -217.747905  9 10  6  76       
PG24   7305.799845 -18828.496744 -17205.508093    -40.287617  8  5  5 105       
PG25 -14129.055520 -18780.511643 -12738.698257   -464.452412  7  6  4 127       
PG26 -21564.425508    -16.827506  15570.685163   -411.873478  4  3  6  53       
PG27 -12265.368218  15362.578245  17693.304388    331.224218  6  5  3  92       
PG28  22135.961729  14394.941801  -2172.116171    649.896125  9 10  4  77       
PG29  -4219.287429 -24517.809011   9306.496576    557.103479  7 10  3  76       
PG30  20294.884686   3777.490351  16800.649538    137.698857  6  4  3  90       
PG31 -24760.098613   6516.624647  -7744.187064    172.070906  6  4  2  85       
PG32 -15070.153067  -3830.488576 -21514.486169   -506.869758  7  2  5  99       
*  2017  9 29 20  0  0.00000000
PG01  -6829.615147  18621.863332 -17661.803476     -2.760569  7  8  3 100       
PG02  21643.828883 -15075.249229   -288.852613    318.420177  3  3  5  87       
PG03   4594.939550  17665.204367 -19324.122235    -62.073251  7  7  4  86       
PG04 -13819.855869   7959.675426  20979.437451 999999.999999                    
PG05  15861.825107  -7931.199961  19736.300546    -27.707446  1  5  3  95       
PG06  22878.428761  -4135.277997 -12837.553759    401.129715  5  6  4  94       
PG07   8981.326607  12446.830108  21886.934487    299.725709  7  9  7  94       
PG08  -6562.330917  23092.071176  11301.101372    -75.239772  6  6  5 109       
PG09   8185.595662  23287.342247   9767.558129    450.490402  6  6  6  86       
PG10 -24384.531461 -10252.233409  -3059.162264     77.029442  3  3  6 107       
PG11  -6911.601837  23953.825589  -9884.595916   -718.498997  7  8  2 102       
PG12    198.018621 -16205.950313 -21248.408142    371.015678  7  9  2  96       
PG13  12031.965889 -17778.942108  15544.908072    -92.107852  4  6  4 114       
PG14 -15072.698057    418.592983 -21580.834545    -84.973664  7  5  7  93       
PG15   3470.840801 -24655.220769   8496.054546   -356.241205  7  8  4 115       
PG16 -16496.726908   5268.881421  20128.053727     37.000659  4  5  6  89       
PG17  13456.001524  10156.133825 -20199.631232   -153.894939  7  8  4  90       
PG18 -20111.836586 -15864.347185   7952.808533    630.520365  8  9  4  72       
PG19  14957.775940    443.525778 -22226.874570   -483.759568  6  4  4 108       
PG20   -106.977564 -16641.030905  20554.634270    488.175483  5  7  3 108       
PG21 -12865.471521 -10273.776121  21642.001426   -475.307653  8  8  6  82       
PG22  -4270.711585  15437.498238 -20946.083280   -138.369629  7  6  5  41       
PG23   1751.115749  26264.076340    507.617504   -217.748269  9 10  6  77       
PG24   8988.461466 -19653.286445 -15355.826631    -40.288012  8  4  5 107       
PG25 -12708.236180 -18139.552401 -14974.726892   -464.458113  7  7  4 108       
PG26 -22927.887945   -978.617479  13455.964754   -411.863316  3  3  6  25       
PG27 -12420.938119  13235.782666  19249.822811    331.228390  6  5  2  89       
PG28  22159.681732  14629.054541    736.354241    649.899138  9  9  5  82       
PG29  -3994.565819 -25417.454212   6604.626944    557.099378  7 10  3  40       
PG30  18579.807884   4843.394491  18420.464026    137.696876  6  4  3 104       
PG31 -23948.819585   5851.482239 -10331.109078    172.068814  6  4  2  95       
PG32 -15060.156158  -6265.681378 -20948.371306   -506.874366  7  3  6 111       
EOF
